     2.100          NAVIGATION                              RINEX VERSION / TYPE
fic2rin                                 06/16/2015 00:56:04 PGM / RUN BY / DATE
                                                            END OF HEADER
13 15  6 16  0  0  0.0 -.123729463667D-03 -.341060513165D-11  .000000000000D+00
     .270000000000D+02  .828437500000D+02  .366836708793D-08  .232598018333D+01
     .439397990704D-05  .504783273209D-02  .118687748909D-04  .515368889427D+04
     .172800000000D+06 -.372529029846D-08 -.103471629597D+00  .987201929092D-07
     .974415111181D+00  .157593750000D+03  .209641263417D+01 -.740173688348D-08
    -.323584907182D-09  .100000000000D+01  .184900000000D+04  .000000000000D+00
     .240000000000D+01  .000000000000D+00 -.111758708954D-07  .270000000000D+02
     .165606000000D+06  .400000000000D+01
14 15  6 16  0  0  0.0  .557629391551D-04 -.284217094304D-11  .000000000000D+00
     .850000000000D+02  .703750000000D+02  .387980446657D-08 -.202399841454D+01
     .359490513802D-05  .822886882816D-02  .124666839838D-04  .515361341476D+04
     .172800000000D+06  .150874257088D-06 -.138175118565D+00 -.134110450745D-06
     .966893531042D+00  .143843750000D+03 -.197793257105D+01 -.746352517150D-08
    -.367158150754D-09  .100000000000D+01  .184900000000D+04  .000000000000D+00
     .340000000000D+01  .000000000000D+00 -.931322574615D-08  .850000000000D+02
     .165606000000D+06  .400000000000D+01
15 15  6 16  0  0  0.0 -.255183782429D-03 -.216004991671D-11  .000000000000D+00
     .310000000000D+02  .604375000000D+02  .464233622908D-08 -.268338991101D+01
     .304356217384D-05  .716105243191D-02  .121518969536D-04  .515366572762D+04
     .172800000000D+06 -.167638063431D-07 -.262846625508D+00 -.782310962677D-07
     .933492391728D+00  .130843750000D+03  .393054032438D+00 -.789997192268D-08
    -.423946230491D-09  .100000000000D+01  .184900000000D+04  .000000000000D+00
     .240000000000D+01  .000000000000D+00 -.107102096081D-07  .310000000000D+02
     .165606000000D+06  .400000000000D+01
17 15  6 16  0  0  0.0 -.176040921360D-03 -.181898940355D-11  .000000000000D+00
     .166000000000D+03 -.857187500000D+02  .404338270883D-08 -.199542958915D+01
    -.442005693913D-05  .101031410741D-01  .114627182484D-04  .515378306770D+04
     .172800000000D+06  .147148966789D-06  .297189149096D+01  .000000000000D+00
     .973093244737D+00  .161656250000D+03 -.200813094527D+01 -.751281293881D-08
     .243224416988D-09  .100000000000D+01  .184900000000D+04  .000000000000D+00
     .240000000000D+01  .000000000000D+00 -.107102096081D-07  .166000000000D+03
     .165606000000D+06  .400000000000D+01
18 15  6 16  0  0  0.0  .409683678299D-03  .295585778076D-11  .000000000000D+00
     .990000000000D+02 -.220000000000D+02  .596381984561D-08 -.463474484910D+00
    -.106357038021D-05  .163192135515D-01  .524520874023D-05  .515359762192D+04
     .172800000000D+06 -.949949026108D-07 -.128244370556D+01  .176951289177D-06
     .924603016833D+00  .260187500000D+03 -.195572502549D+01 -.898144554183D-08
    -.476091259683D-09  .100000000000D+01  .184900000000D+04  .000000000000D+00
     .340000000000D+01  .000000000000D+00 -.111758708954D-07  .990000000000D+02
     .165606000000D+06  .400000000000D+01
19 15  6 16  0  0  0.0 -.513450242579D-03 -.102318153949D-11  .000000000000D+00
     .110000000000D+03 -.980000000000D+02  .405624038726D-08 -.278858859294D+01
    -.522099435329D-05  .115119130351D-01  .117607414722D-04  .515374652481D+04
     .172800000000D+06 -.465661287308D-07  .302140439808D+01 -.240281224251D-06
     .970172110397D+00  .159375000000D+03  .561750111833D+00 -.752638493271D-08
     .230366738556D-09  .100000000000D+01  .184900000000D+04  .000000000000D+00
     .240000000000D+01  .000000000000D+00 -.153668224812D-07  .110000000000D+03
     .165606000000D+06  .400000000000D+01
20 15  6 16  0  0  0.0  .329974107444D-03  .352429196937D-11  .000000000000D+00
     .470000000000D+02 -.225625000000D+02  .572166690182D-08 -.251538741717D+01
    -.113248825073D-05  .558837840799D-02  .506080687046D-05  .515581835175D+04
     .172800000000D+06  .894069671631D-07 -.133479342296D+01  .279396772385D-07
     .925771908859D+00  .262375000000D+03  .122373427658D+01 -.847285292833D-08
    -.410731394325D-09  .100000000000D+01  .184900000000D+04  .000000000000D+00
     .240000000000D+01  .000000000000D+00 -.838190317154D-08  .470000000000D+02
     .165606000000D+06  .400000000000D+01
21 15  6 16  0  0  0.0 -.455614645034D-03 -.341060513165D-11  .000000000000D+00
     .950000000000D+02  .225937500000D+02  .560309053407D-08  .630896579169D+00
     .141561031342D-05  .224675071659D-01  .833906233311D-05  .515379957199D+04
     .172800000000D+06 -.249594449997D-06 -.232612060883D+01  .689178705215D-07
     .933963264096D+00  .212187500000D+03 -.190048829924D+01 -.881965308824D-08
     .430375069706D-09  .100000000000D+01  .184900000000D+04  .000000000000D+00
     .240000000000D+01  .000000000000D+00 -.116415321827D-07  .950000000000D+02
     .165606000000D+06  .400000000000D+01
22 15  6 16  0  0  0.0  .361369457096D-03  .397903932026D-11  .000000000000D+00
     .320000000000D+02 -.248750000000D+02  .590453166173D-08 -.918087726839D+00
    -.139325857162D-05  .801513623446D-02  .507570803165D-05  .515367670250D+04
     .172800000000D+06 -.931322574615D-08 -.128130878980D+01  .176951289177D-06
     .922419338034D+00  .259937500000D+03 -.204398341449D+01 -.875607901155D-08
    -.531807866218D-09  .100000000000D+01  .184900000000D+04  .000000000000D+00
     .240000000000D+01  .000000000000D+00 -.176951289177D-07  .320000000000D+02
     .165606000000D+06  .400000000000D+01
23 15  6 16  0  0  0.0 -.115083530545D-03 -.238742359215D-11  .000000000000D+00
     .670000000000D+02  .505000000000D+02  .433410910447D-08  .313101884410D+01
     .252947211266D-05  .103078811662D-01  .121705234051D-04  .515361215973D+04
     .172800000000D+06 -.577419996262D-07 -.210372501556D+00 -.763684511185D-07
     .948687397049D+00  .137437500000D+03 -.267067587870D+01 -.768960601724D-08
    -.381801617856D-09  .100000000000D+01  .184900000000D+04  .000000000000D+00
     .240000000000D+01  .000000000000D+00 -.200234353542D-07  .670000000000D+02
     .165606000000D+06  .400000000000D+01
24 15  6 16  0  0  0.0 -.499878078699D-04 -.568434188608D-12  .000000000000D+00
     .900000000000D+02  .140125000000D+03  .464233622908D-08  .238051925418D+01
     .725872814655D-05  .322859559674D-02  .397115945816D-05  .515367391205D+04
     .172800000000D+06 -.298023223877D-07  .816038827498D+00 -.149011611938D-07
     .953377273956D+00  .296937500000D+03  .361209843188D+00 -.837963475971D-08
     .402516766439D-09  .100000000000D+01  .184900000000D+04  .000000000000D+00
     .340000000000D+01  .000000000000D+00  .232830643654D-08  .900000000000D+02
     .165606000000D+06  .400000000000D+01
25 15  6 16  0  0  0.0 -.229105353355D-05 -.420641299570D-11  .000000000000D+00
     .430000000000D+02 -.823125000000D+02  .445661420730D-08  .351430216811D+00
    -.439397990704D-05  .465940881986D-02  .148080289364D-05  .515366631508D+04
     .172800000000D+06  .000000000000D+00  .188008155317D+01  .108033418655D-06
     .978061225296D+00  .364125000000D+03  .740619269422D+00 -.838999233400D-08
    -.174292974288D-09  .100000000000D+01  .184900000000D+04  .000000000000D+00
     .240000000000D+01  .000000000000D+00  .558793544769D-08  .430000000000D+02
     .165606000000D+06  .400000000000D+01
26 15  6 16  0  0  0.0  .289962626994D-04 -.227373675443D-11  .000000000000D+00
     .950000000000D+02 -.783437500000D+02  .475555523082D-08 -.146563822768D+01
    -.395998358727D-05  .321819446981D-03  .799074769020D-06  .515358649635D+04
     .172800000000D+06  .353902578354D-07  .187716226942D+01  .279396772385D-07
     .960176596809D+00  .361625000000D+03  .122636010920D+01 -.850821154402D-08
    -.123219418298D-09  .100000000000D+01  .184900000000D+04  .000000000000D+00
     .340000000000D+01  .000000000000D+00  .745058059692D-08  .950000000000D+02
     .165606000000D+06  .400000000000D+01
27 15  6 16  0  0  0.0 -.258442014456D-05  .272848410532D-11  .000000000000D+00
     .000000000000D+00 -.111343750000D+03  .417874549009D-08 -.194577506132D+01
    -.594183802605D-05  .253955519293D-02  .107642263174D-04  .515369794083D+04
     .172800000000D+06  .372529029846D-07  .292402865010D+01 -.540167093277D-07
     .967978046342D+00  .177093750000D+03  .251033304545D+00 -.773853662683D-08
     .157863718515D-09  .100000000000D+01  .184900000000D+04  .000000000000D+00
     .240000000000D+01  .000000000000D+00  .139698386192D-08  .256000000000D+03
     .165606000000D+06  .400000000000D+01
28 15  6 16  0  0  0.0  .447110272944D-03  .261479726760D-11  .000000000000D+00
     .240000000000D+02 -.919375000000D+02  .419731769227D-08 -.114053838288D+01
    -.430457293987D-05  .195433987537D-01  .296905636787D-05  .515369429398D+04
     .172800000000D+06 -.245869159698D-06  .195098428438D+01  .376254320145D-06
     .988763996869D+00  .339031250000D+03 -.166237558811D+01 -.828784522202D-08
    -.147148986489D-09  .100000000000D+01  .184900000000D+04  .000000000000D+00
     .240000000000D+01  .000000000000D+00 -.111758708954D-07  .240000000000D+02
     .165606000000D+06  .400000000000D+01
29 15  6 16  0  0  0.0  .616893172264D-03  .227373675443D-11  .000000000000D+00
     .730000000000D+02 -.104187500000D+03  .406159775328D-08  .590794164697D+00
    -.528059899807D-05  .119541713502D-02  .120177865028D-04  .515375513077D+04
     .172800000000D+06  .931322574615D-08  .298126787860D+01 -.130385160446D-07
     .973947161723D+00  .157312500000D+03 -.541912634002D+00 -.765996192530D-08
     .210723063176D-09  .100000000000D+01  .184900000000D+04  .000000000000D+00
     .240000000000D+01  .000000000000D+00 -.977888703346D-08  .730000000000D+02
     .165606000000D+06  .400000000000D+01
